{
  "type": "FeatureCollection",
  "features": [
    {
      "type": "Feature",
      "properties": {
        "norad_id": 31007,
        "name": "FENGYUN 1C DEB",
        "group": "fengyun-1c-debris",
        "lat": 45.2387585856502,
        "lon": 161.7927176646017,
        "alt_km": 685.9261678163566,
        "timestamp": "2025-12-07T14:37:05.484592+00:00",
        "meta_object_name": "FENGYUN 1C DEB",
        "meta_object_id": "1999-025BCZ",
        "meta_epoch": "2025-12-05T22:29:40.699968",
        "meta_mean_motion": 14.58430465,
        "meta_eccentricity": 0.00678396,
        "meta_inclination": 98.0872,
        "meta_ra_of_asc_node": 331.9227,
        "meta_arg_of_pericenter": 58.845,
        "meta_mean_anomaly": 301.9379,
        "meta_ephemeris_type": 0,
        "meta_classification_type": "U",
        "meta_norad_cat_id": 31007,
        "meta_element_set_no": 999,
        "meta_rev_at_epoch": 97995,
        "meta_bstar": 0.0032392105,
        "meta_mean_motion_dot": 0.0001549,
        "meta_mean_motion_ddot": 0,
        "tle_line1": "1 31007U 99025BCZ 25339.93727662  .00015490  00000+0  32392-2 0  9999",
        "tle_line2": "2 31007  98.0872 331.9227 0067839  58.8450 301.9379 14.58430465979958"
      },
      "geometry": {
        "type": "Point",
        "coordinates": [
          161.7927176646017,
          45.2387585856502
        ]
      }
    },
    {
      "type": "Feature",
      "properties": {
        "norad_id": 31009,
        "name": "FENGYUN 1C DEB",
        "group": "fengyun-1c-debris",
        "lat": 35.890724728625216,
        "lon": -28.938863098754112,
        "alt_km": 921.1875265337394,
        "timestamp": "2025-12-07T14:37:05.484602+00:00",
        "meta_object_name": "FENGYUN 1C DEB",
        "meta_object_id": "1999-025BDB",
        "meta_epoch": "2025-12-06T23:17:13.398144",
        "meta_mean_motion": 14.00360131,
        "meta_eccentricity": 0.00527213,
        "meta_inclination": 98.8978,
        "meta_ra_of_asc_node": 336.9486,
        "meta_arg_of_pericenter": 253.6534,
        "meta_mean_anomaly": 163.8857,
        "meta_ephemeris_type": 0,
        "meta_classification_type": "U",
        "meta_norad_cat_id": 31009,
        "meta_element_set_no": 999,
        "meta_rev_at_epoch": 95780,
        "meta_bstar": 0.00025641786,
        "meta_mean_motion_dot": 3.41e-06,
        "meta_mean_motion_ddot": 0,
        "tle_line1": "1 31009U 99025BDB 25340.97029396  .00000341  00000+0  25642-3 0  9996",
        "tle_line2": "2 31009  98.8978 336.9486 0052721 253.6534 163.8857 14.00360131957804"
      },
      "geometry": {
        "type": "Point",
        "coordinates": [
          -28.938863098754112,
          35.890724728625216
        ]
      }
    },
    {
      "type": "Feature",
      "properties": {
        "norad_id": 31010,
        "name": "FENGYUN 1C DEB",
        "group": "fengyun-1c-debris",
        "lat": -12.078001454169232,
        "lon": 129.43962774532125,
        "alt_km": 734.1084871315879,
        "timestamp": "2025-12-07T14:37:05.484612+00:00",
        "meta_object_name": "FENGYUN 1C DEB",
        "meta_object_id": "1999-025BDC",
        "meta_epoch": "2025-12-06T08:21:29.015136",
        "meta_mean_motion": 14.25651238,
        "meta_eccentricity": 0.01131148,
        "meta_inclination": 101.728,
        "meta_ra_of_asc_node": 125.2104,
        "meta_arg_of_pericenter": 11.3716,
        "meta_mean_anomaly": 348.9969,
        "meta_ephemeris_type": 0,
        "meta_classification_type": "U",
        "meta_norad_cat_id": 31010,
        "meta_element_set_no": 999,
        "meta_rev_at_epoch": 95538,
        "meta_bstar": 0.0057393687,
        "meta_mean_motion_dot": 0.00014514,
        "meta_mean_motion_ddot": 0,
        "tle_line1": "1 31010U 99025BDC 25340.34825249  .00014514  00000+0  57394-2 0  9995",
        "tle_line2": "2 31010 101.7280 125.2104 0113114  11.3716 348.9969 14.25651238955386"
      },
      "geometry": {
        "type": "Point",
        "coordinates": [
          129.43962774532125,
          -12.078001454169232
        ]
      }
    },
    {
      "type": "Feature",
      "properties": {
        "norad_id": 31012,
        "name": "FENGYUN 1C DEB",
        "group": "fengyun-1c-debris",
        "lat": 52.975088619974564,
        "lon": -132.4019717808052,
        "alt_km": 842.9718977695384,
        "timestamp": "2025-12-07T14:37:05.484622+00:00",
        "meta_object_name": "FENGYUN 1C DEB",
        "meta_object_id": "1999-025BDE",
        "meta_epoch": "2025-12-06T23:17:57.833664",
        "meta_mean_motion": 14.27853576,
        "meta_eccentricity": 0.00813212,
        "meta_inclination": 98.9115,
        "meta_ra_of_asc_node": 238.9539,
        "meta_arg_of_pericenter": 268.3774,
        "meta_mean_anomaly": 105.9982,
        "meta_ephemeris_type": 0,
        "meta_classification_type": "U",
        "meta_norad_cat_id": 31012,
        "meta_element_set_no": 999,
        "meta_rev_at_epoch": 97665,
        "meta_bstar": 0.00036351662,
        "meta_mean_motion_dot": 8.84e-06,
        "meta_mean_motion_ddot": 0,
        "tle_line1": "1 31012U 99025BDE 25340.97080826  .00000884  00000+0  36352-3 0  9997",
        "tle_line2": "2 31012  98.9115 238.9539 0081321 268.3774 105.9982 14.27853576976658"
      },
      "geometry": {
        "type": "Point",
        "coordinates": [
          -132.4019717808052,
          52.975088619974564
        ]
      }
    },
    {
      "type": "Feature",
      "properties": {
        "norad_id": 31014,
        "name": "FENGYUN 1C DEB",
        "group": "fengyun-1c-debris",
        "lat": 48.23743955242529,
        "lon": 147.45572590935737,
        "alt_km": 879.4656486137283,
        "timestamp": "2025-12-07T14:37:05.484632+00:00",
        "meta_object_name": "FENGYUN 1C DEB",
        "meta_object_id": "1999-025BDG",
        "meta_epoch": "2025-12-06T05:25:42.548160",
        "meta_mean_motion": 13.98483671,
        "meta_eccentricity": 0.00874793,
        "meta_inclination": 98.8669,
        "meta_ra_of_asc_node": 316.0506,
        "meta_arg_of_pericenter": 211.4111,
        "meta_mean_anomaly": 162.0048,
        "meta_ephemeris_type": 0,
        "meta_classification_type": "U",
        "meta_norad_cat_id": 31014,
        "meta_element_set_no": 999,
        "meta_rev_at_epoch": 95745,
        "meta_bstar": 0.00043882387,
        "meta_mean_motion_dot": 6.06e-06,
        "meta_mean_motion_ddot": 0,
        "tle_line1": "1 31014U 99025BDG 25340.22618690  .00000606  00000+0  43882-3 0  9991",
        "tle_line2": "2 31014  98.8669 316.0506 0087479 211.4111 162.0048 13.98483671957455"
      },
      "geometry": {
        "type": "Point",
        "coordinates": [
          147.45572590935737,
          48.23743955242529
        ]
      }
    },
    {
      "type": "Feature",
      "properties": {
        "norad_id": 31016,
        "name": "FENGYUN 1C DEB",
        "group": "fengyun-1c-debris",
        "lat": 16.410416365221685,
        "lon": -4.917563842129364,
        "alt_km": 785.7733510164117,
        "timestamp": "2025-12-07T14:37:05.484642+00:00",
        "meta_object_name": "FENGYUN 1C DEB",
        "meta_object_id": "1999-025BDJ",
        "meta_epoch": "2025-12-03T08:13:01.747776",
        "meta_mean_motion": 14.30468358,
        "meta_eccentricity": 0.0112189,
        "meta_inclination": 98.4374,
        "meta_ra_of_asc_node": 353.4483,
        "meta_arg_of_pericenter": 302.1809,
        "meta_mean_anomaly": 73.5512,
        "meta_ephemeris_type": 0,
        "meta_classification_type": "U",
        "meta_norad_cat_id": 31016,
        "meta_element_set_no": 999,
        "meta_rev_at_epoch": 97336,
        "meta_bstar": 0.00042529,
        "meta_mean_motion_dot": 1.141e-05,
        "meta_mean_motion_ddot": 0,
        "tle_line1": "1 31016U 99025BDJ 25337.34238134  .00001141  00000+0  42529-3 0  9995",
        "tle_line2": "2 31016  98.4374 353.4483 0112189 302.1809  73.5512 14.30468358973366"
      },
      "geometry": {
        "type": "Point",
        "coordinates": [
          -4.917563842129364,
          16.410416365221685
        ]
      }
    },
    {
      "type": "Feature",
      "properties": {
        "norad_id": 31017,
        "name": "FENGYUN 1C DEB",
        "group": "fengyun-1c-debris",
        "lat": 34.14616032351454,
        "lon": -38.018587137289025,
        "alt_km": 789.7777623172115,
        "timestamp": "2025-12-07T14:37:05.484652+00:00",
        "meta_object_name": "FENGYUN 1C DEB",
        "meta_object_id": "1999-025BDK",
        "meta_epoch": "2025-12-06T04:38:35.153952",
        "meta_mean_motion": 14.08805775,
        "meta_eccentricity": 0.0113514,
        "meta_inclination": 98.68,
        "meta_ra_of_asc_node": 326.565,
        "meta_arg_of_pericenter": 8.6706,
        "meta_mean_anomaly": 49.7246,
        "meta_ephemeris_type": 0,
        "meta_classification_type": "U",
        "meta_norad_cat_id": 31017,
        "meta_element_set_no": 999,
        "meta_rev_at_epoch": 96204,
        "meta_bstar": 0.00075837839,
        "meta_mean_motion_dot": 1.346e-05,
        "meta_mean_motion_ddot": 0,
        "tle_line1": "1 31017U 99025BDK 25340.19346243  .00001346  00000+0  75838-3 0  9990",
        "tle_line2": "2 31017  98.6800 326.5650 0113514   8.6706  49.7246 14.08805775962042"
      },
      "geometry": {
        "type": "Point",
        "coordinates": [
          -38.018587137289025,
          34.14616032351454
        ]
      }
    }
  ]
}